H1 CPF 01  gfz 2022 12 01 01  8351 terrasarx 
H2 0702601  6201 31698    2022 12 01 00 59 42 2022 12 06 00 00 42   120 1 1  0 0 0
H9
10 0 59917  75582.000000  0   -2490972.558   3446784.281  -5426507.447
10 0 59917  75702.000000  0   -1878899.685   2978457.273  -5927441.551
10 0 59917  75822.000000  0   -1242976.406   2447543.185  -6324819.824
10 0 59917  75942.000000  0    -595267.405   1862973.764  -6611786.744
10 0 59917  76062.000000  0      52144.048   1234800.304  -6783400.755
10 0 59917  76182.000000  0     687376.227    574021.612  -6836710.232
10 0 59917  76302.000000  0    1298962.065   -107604.874  -6770800.130
10 0 59917  76422.000000  0    1876051.958   -797768.396  -6586804.990
10 0 59917  76542.000000  0    2408601.175  -1483821.367  -6287890.847
10 0 59917  76662.000000  0    2887542.143  -2153005.270  -5879206.773
10 0 59917  76782.000000  0    3304938.274  -2792682.751  -5367806.504
10 0 59917  76902.000000  0    3654118.907  -3390575.988  -4762538.594
10 0 59917  77022.000000  0    3929789.357  -3935003.139  -4073902.179
10 0 59917  77142.000000  0    4128114.918  -4415107.968  -3313875.191
10 0 59917  77262.000000  0    4246779.123  -4821080.812  -2495714.782
10 0 59917  77382.000000  0    4285013.345  -5144365.174  -1633730.626
10 0 59917  77502.000000  0    4243594.338  -5377844.180   -743034.530
10 0 59917  77622.000000  0    4124810.907  -5516000.565    160728.201
10 0 59917  77742.000000  0    3932399.212  -5555046.822   1061659.932
10 0 59917  77862.000000  0    3671448.864  -5493021.608   1943899.129
10 0 59917  77982.000000  0    3348280.498  -5329847.895   2791909.265
10 0 59917  78102.000000  0    2970298.749  -5067353.936   3590759.556
10 0 59917  78222.000000  0    2545825.536  -4709255.393   4326393.935
10 0 59917  78342.000000  0    2083917.699  -4261099.536   4985881.854
10 0 59917  78462.000000  0    1594172.981  -3730173.076   5557646.121
10 0 59917  78582.000000  0    1086529.377  -3125376.202   6031664.524
10 0 59917  78702.000000  0     571061.658  -2457065.696   6399640.321
10 0 59917  78822.000000  0      57780.897  -1736872.207   6655140.431
10 0 59917  78942.000000  0    -443559.061   -977495.072   6793701.446
10 0 59917  79062.000000  0    -923645.662   -192476.685   6812903.938
10 0 59917  79182.000000  0   -1373779.692    604039.588   6712411.865
10 0 59917  79302.000000  0   -1786032.399   1397563.682   6493977.778
10 0 59917  79422.000000  0   -2153385.159   2173521.395   6161414.187
10 0 59917  79542.000000  0   -2469849.812   2917521.729   5720531.227
10 0 59917  79662.000000  0   -2730567.396   3615625.019   5179041.079
10 0 59917  79782.000000  0   -2931885.034   4254607.407   4546430.089
10 0 59917  79902.000000  0   -3071408.398   4822217.088   3833797.920
10 0 59917  80022.000000  0   -3148028.217   5307416.727   3053666.102
10 0 59917  80142.000000  0   -3161919.921   5700605.798   2219758.041
10 0 59917  80262.000000  0   -3114516.848   5993817.125   1346755.188
10 0 59917  80382.000000  0   -3008456.955   6180883.801    450034.169
10 0 59917  80502.000000  0   -2847504.245   6257572.434   -454611.163
10 0 59917  80622.000000  0   -2636447.585   6221677.972  -1351257.311
10 0 59917  80742.000000  0   -2380977.950   6073076.557  -2224142.927
10 0 59917  80862.000000  0   -2087546.231   5813732.680  -3057954.106
10 0 59917  80982.000000  0   -1763208.639   5447666.702  -3838095.440
10 0 59917  81102.000000  0   -1415463.640   4980882.704  -4550946.283
10 0 59917  81222.000000  0   -1052084.094   4421258.180  -5184094.630
10 0 59917  81342.000000  0    -680948.584   3778401.361  -5726546.497
10 0 59917  81462.000000  0    -309874.713   3063477.344  -6168908.821
10 0 59917  81582.000000  0      53541.647   2289006.490  -6503541.349
10 0 59917  81702.000000  0     402076.985   1468642.205  -6724676.352
10 0 59917  81822.000000  0     729018.963    616931.222  -6828509.015
10 0 59917  81942.000000  0    1028292.013   -250940.921  -6813255.709
10 0 59917  82062.000000  0    1294566.874  -1119415.679  -6679180.600
10 0 59917  82182.000000  0    1523352.740  -1972833.151  -6428590.064
10 0 59917  82302.000000  0    1711071.817  -2795706.679  -6065797.878
10 0 59917  82422.000000  0    1855115.403  -3572998.858  -5597060.440
10 0 59917  82542.000000  0    1953879.733  -4290396.673  -5030479.836
10 0 59917  82662.000000  0    2006781.151  -4934576.486  -4375873.149
10 0 59917  82782.000000  0    2014250.548  -5493455.370  -3644613.509
10 0 59917  82902.000000  0    1977706.591  -5956426.542  -2849442.019
10 0 59917  83022.000000  0    1899507.282  -6314571.914  -2004251.832
10 0 59917  83142.000000  0    1782880.872  -6560844.818  -1123846.784
10 0 59917  83262.000000  0    1631838.592  -6690219.831   -223681.161
10 0 59917  83382.000000  0    1451070.342  -6699803.373    680418.501
10 0 59917  83502.000000  0    1245825.110  -6588901.848   1572537.837
10 0 59917  83622.000000  0    1021779.614  -6359047.467   2436965.221
10 0 59917  83742.000000  0     784899.016  -6013975.540   3258477.787
10 0 59917  83862.000000  0     541291.661  -5559558.656   4022616.160
10 0 59917  83982.000000  0     297063.434  -5003699.261   4715942.900
10 0 59917  84102.000000  0      58174.630  -4356182.996   5326280.652
10 0 59917  84222.000000  0    -169696.840  -3628496.298   5842924.881
10 0 59917  84342.000000  0    -381282.406  -2833612.594   6256828.315
10 0 59917  84462.000000  0    -571838.367  -1985752.940   6560752.132
10 0 59917  84582.000000  0    -737247.250  -1100128.415   6749385.552
10 0 59917  84702.000000  0    -874103.254   -192665.656   6819434.398
10 0 59917  84822.000000  0    -979780.830    720280.551   6769675.652
10 0 59917  84942.000000  0   -1052484.392   1622221.801   6600977.238
10 0 59917  85062.000000  0   -1091278.448   2496833.130   6316283.676
10 0 59917  85182.000000  0   -1096098.547   3328248.316   5920568.054
10 0 59917  85302.000000  0   -1067742.824   4101349.477   5420750.240
10 0 59917  85422.000000  0   -1007843.224   4802045.411   4825581.872
10 0 59917  85542.000000  0    -918818.465   5417535.481   4145499.356
10 0 59917  85662.000000  0    -803807.975   5936551.524   3392443.953
10 0 59917  85782.000000  0    -666589.934   6349573.281   2579656.476
10 0 59917  85902.000000  0    -511484.097   6649016.045   1721442.618
10 0 59917  86022.000000  0    -343239.668   6829377.649    832915.583
10 0 59917  86142.000000  0    -166913.292   6887345.459    -70276.226
10 0 59917  86262.000000  0      12260.285   6821860.891   -972232.931
10 0 59917  86382.000000  0     189001.827   6634137.425  -1857093.511
10 0 59918    102.000000  0     358120.229   6327630.744  -2709322.620
10 0 59918    222.000000  0     514642.001   5907966.163  -3513987.984
10 0 59918    342.000000  0     653935.167   5382824.612  -4257024.522
10 0 59918    462.000000  0     771824.186   4761789.576  -4925479.220
10 0 59918    582.000000  0     864693.211   4056159.970  -5507731.993
10 0 59918    702.000000  0     929575.259   3278734.318  -5993689.623
10 0 59918    822.000000  0     964225.165   2443570.777  -6374950.790
10 0 59918    942.000000  0     967175.955   1565728.714  -6644939.176
10 0 59918   1062.000000  0     937777.145    660998.113  -6799006.149
10 0 59918   1182.000000  0     876214.892   -254381.056  -6834502.801
10 0 59918   1302.000000  0     783513.714  -1164005.120  -6750820.023
10 0 59918   1422.000000  0     661519.369  -2051593.148  -6549396.031
10 0 59918   1542.000000  0     512864.278  -2901269.615  -6233694.858
10 0 59918   1662.000000  0     340914.561  -3697844.194  -5809155.606
10 0 59918   1782.000000  0     149699.710  -4427082.058  -5283107.130
10 0 59918   1902.000000  0     -56173.008  -5075959.350  -4664652.650
10 0 59918   2022.000000  0    -271619.662  -5632901.616  -3964523.888
10 0 59918   2142.000000  0    -491193.959  -6087999.682  -3194904.463
10 0 59918   2262.000000  0    -709212.450  -6433197.180  -2369225.060
10 0 59918   2382.000000  0    -919888.229  -6662446.459  -1501933.266
10 0 59918   2502.000000  0   -1117469.737  -6771827.467   -608239.913
10 0 59918   2622.000000  0   -1296381.280  -6759624.944    296151.995
10 0 59918   2742.000000  0   -1451361.937  -6626362.118   1195329.739
10 0 59918   2862.000000  0   -1577599.505  -6374789.849   2073459.358
10 0 59918   2982.000000  0   -1670855.318  -6009830.376   2915073.950
10 0 59918   3102.000000  0   -1727576.776  -5538476.724   3705354.489
10 0 59918   3222.000000  0   -1744994.067  -4969651.063   4430396.699
10 0 59918   3342.000000  0   -1721199.354  -4314026.850   5077457.749
10 0 59918   3462.000000  0   -1655207.815  -3583819.998   5635180.735
10 0 59918   3582.000000  0   -1546997.720  -2792550.984   6093792.110
10 0 59918   3702.000000  0   -1397528.323  -1954786.478   6445266.620
10 0 59918   3822.000000  0   -1208736.751  -1085867.407   6683461.299
10 0 59918   3942.000000  0    -983514.875   -201625.109   6804217.416
10 0 59918   4062.000000  0    -725665.897    681907.634   6805427.751
10 0 59918   4182.000000  0    -439840.091   1548786.488   6687071.721
10 0 59918   4302.000000  0    -131450.791   2383442.995   6451215.798
10 0 59918   4422.000000  0     193427.630   3170963.945   6101979.386
10 0 59918   4542.000000  0     528177.588   3897358.738   5645467.491
10 0 59918   4662.000000  0     865770.481   4549811.489   5089669.685
10 0 59918   4782.000000  0    1198911.659   5116912.780   4444326.317
10 0 59918   4902.000000  0    1520194.490   5588866.525   3720762.208
10 0 59918   5022.000000  0    1822260.761   5957668.105   2931693.743
10 0 59918   5142.000000  0    2097966.811   6217251.665   2091004.712
10 0 59918   5262.000000  0    2340545.483   6363597.810   1213497.664
10 0 59918   5382.000000  0    2543764.212   6394800.092    314626.271
10 0 59918   5502.000000  0    2702072.771   6311088.223   -589784.211
10 0 59918   5622.000000  0    2810738.558   6114809.723  -1483823.513
99
